[{"OBJECT_NAME":"SCS-01 L","OBJECT_ID":"2025-100L","EPOCH":"2026-03-09T23:34:47.606016","MEAN_MOTION":15.20947264,"ECCENTRICITY":0.00097838,"INCLINATION":97.3734,"RA_OF_ASC_NODE":144.0559,"ARG_OF_PERICENTER":283.1902,"MEAN_ANOMALY":76.8242,"EPHEMERIS_TYPE":0,"CLASSIFICATION_TYPE":"U","NORAD_CAT_ID":63992,"ELEMENT_SET_NO":999,"REV_AT_EPOCH":4553,"BSTAR":0.00095526864,"MEAN_MOTION_DOT":0.0002115,"MEAN_MOTION_DDOT":0},{"OBJECT_NAME":"CZ-6A DEB","OBJECT_ID":"2022-151SL","EPOCH":"2026-03-09T10:13:37.626816","MEAN_MOTION":15.13067162,"ECCENTRICITY":0.00442991,"INCLINATION":99.1095,"RA_OF_ASC_NODE":231.9477,"ARG_OF_PERICENTER":182.6933,"MEAN_ANOMALY":177.4061,"EPHEMERIS_TYPE":0,"CLASSIFICATION_TYPE":"U","NORAD_CAT_ID":54947,"ELEMENT_SET_NO":999,"REV_AT_EPOCH":17723,"BSTAR":0.0054047259,"MEAN_MOTION_DOT":0.00099065,"MEAN_MOTION_DDOT":0}]
